{"type": "FeatureCollection", "features": [ {"type": "Feature", "properties": {"norad_id": 36707, "name": "FENGYUN 1C DEB", "group": "fengyun-1c-debris", "lat": 35.324782766298746, "lon": -138.79074536362089, "alt_km": 800.2832450992282, "timestamp": "2025-12-14T20:40:32.060198+00:00", "meta": {"OBJECT_NAME": "FENGYUN 1C DEB", "OBJECT_ID": "1999-025EAD", "EPOCH": "2025-12-11T22:32:06.995904", "MEAN_MOTION": 14.17305569, "ECCENTRICITY": 0.004991, "INCLINATION": 98.7525, "RA_OF_ASC_NODE": 32.064, "ARG_OF_PERICENTER": 124.0792, "MEAN_ANOMALY": 236.5135, "EPHEMERIS_TYPE": 0, "CLASSIFICATION_TYPE": "U", "NORAD_CAT_ID": 36707, "ELEMENT_SET_NO": 999, "REV_AT_EPOCH": 64068, "BSTAR": 0.0012278, "MEAN_MOTION_DOT": 2.469e-05, "MEAN_MOTION_DDOT": 0}, "tle": {"line1": "1 36707U 99025EAD 25345.93896986  .00002469  00000+0  12278-2 0  9997", "line2": "2 36707  98.7525  32.0640 0049910 124.0792 236.5135 14.17305569640684"}}, "geometry": {"type": "Point", "coordinates": [-138.79074536362089, 35.324782766298746]}}, {"type": "Feature", "properties": {"norad_id": 36710, "name": "FENGYUN 1C DEB", "group": "fengyun-1c-debris", "lat": -57.73419381734897, "lon": 59.472739330152194, "alt_km": 761.4504431266405, "timestamp": "2025-12-14T20:40:32.060208+00:00", "meta": {"OBJECT_NAME": "FENGYUN 1C DEB", "OBJECT_ID": "1999-025EAG", "EPOCH": "2025-12-09T10:05:53.606976", "MEAN_MOTION": 14.49787027, "ECCENTRICITY": 0.00678732, "INCLINATION": 98.3799, "RA_OF_ASC_NODE": 40.5617, "ARG_OF_PERICENTER": 191.5881, "MEAN_ANOMALY": 168.3755, "EPHEMERIS_TYPE": 0, "CLASSIFICATION_TYPE": "U", "NORAD_CAT_ID": 36710, "ELEMENT_SET_NO": 999, "REV_AT_EPOCH": 64905, "BSTAR": 0.0022522303, "MEAN_MOTION_DOT": 8.905e-05, "MEAN_MOTION_DDOT": 0}, "tle": {"line1": "1 36710U 99025EAG 25343.42075934  .00008905  00000+0  22522-2 0  9999", "line2": "2 36710  98.3799  40.5617 0067873 191.5881 168.3755 14.49787027649059"}}, "geometry": {"type": "Point", "coordinates": [59.472739330152194, -57.73419381734897]}}, {"type": "Feature", "properties": {"norad_id": 36711, "name": "FENGYUN 1C DEB", "group": "fengyun-1c-debris", "lat": 62.41994715346789, "lon": -149.8432026336622, "alt_km": 739.8869563332892, "timestamp": "2025-12-14T20:40:32.060218+00:00", "meta": {"OBJECT_NAME": "FENGYUN 1C DEB", "OBJECT_ID": "1999-025EAH", "EPOCH": "2025-11-29T18:49:32.545344", "MEAN_MOTION": 14.42080972, "ECCENTRICITY": 0.01000486, "INCLINATION": 100.8061, "RA_OF_ASC_NODE": 349.6584, "ARG_OF_PERICENTER": 244.1532, "MEAN_ANOMALY": 114.9305, "EPHEMERIS_TYPE": 0, "CLASSIFICATION_TYPE": "U", "NORAD_CAT_ID": 36711, "ELEMENT_SET_NO": 999, "REV_AT_EPOCH": 64124, "BSTAR": 0.0024295961, "MEAN_MOTION_DOT": 8.419e-05, "MEAN_MOTION_DDOT": 0}, "tle": {"line1": "1 36711U 99025EAH 25333.78440446  .00008419  00000+0  24296-2 0  9992", "line2": "2 36711 100.8061 349.6584 0100048 244.1532 114.9305 14.42080972641246"}}, "geometry": {"type": "Point", "coordinates": [-149.8432026336622, 62.41994715346789]}}, {"type": "Feature", "properties": {"norad_id": 36716, "name": "FENGYUN 1C DEB", "group": "fengyun-1c-debris", "lat": 70.16969965961482, "lon": 114.68235015706391, "alt_km": 972.7908695728984, "timestamp": "2025-12-14T20:40:32.060228+00:00", "meta": {"OBJECT_NAME": "FENGYUN 1C DEB", "OBJECT_ID": "1999-025EAN", "EPOCH": "2025-12-10T12:22:25.648032", "MEAN_MOTION": 13.88411976, "ECCENTRICITY": 0.0148045, "INCLINATION": 99.2282, "RA_OF_ASC_NODE": 263.5873, "ARG_OF_PERICENTER": 234.8718, "MEAN_ANOMALY": 123.849, "EPHEMERIS_TYPE": 0, "CLASSIFICATION_TYPE": "U", "NORAD_CAT_ID": 36716, "ELEMENT_SET_NO": 999, "REV_AT_EPOCH": 62900, "BSTAR": 0.00035629, "MEAN_MOTION_DOT": 4.21e-06, "MEAN_MOTION_DDOT": 0}, "tle": {"line1": "1 36716U 99025EAN 25344.51557463  .00000421  00000+0  35629-3 0  9996", "line2": "2 36716  99.2282 263.5873 0148045 234.8718 123.8490 13.88411976629008"}}, "geometry": {"type": "Point", "coordinates": [114.68235015706391, 70.16969965961482]}}, {"type": "Feature", "properties": {"norad_id": 36724, "name": "FENGYUN 1C DEB", "group": "fengyun-1c-debris", "lat": -75.6391850704633, "lon": 160.08477941083845, "alt_km": 785.6361849880795, "timestamp": "2025-12-14T20:40:32.060238+00:00", "meta": {"OBJECT_NAME": "FENGYUN 1C DEB", "OBJECT_ID": "1999-025EAW", "EPOCH": "2025-12-10T01:02:55.934016", "MEAN_MOTION": 14.25243591, "ECCENTRICITY": 0.01036768, "INCLINATION": 99.4684, "RA_OF_ASC_NODE": 15.5672, "ARG_OF_PERICENTER": 205.2556, "MEAN_ANOMALY": 186.4891, "EPHEMERIS_TYPE": 0, "CLASSIFICATION_TYPE": "U", "NORAD_CAT_ID": 36724, "ELEMENT_SET_NO": 999, "REV_AT_EPOCH": 57434, "BSTAR": 0.0025842278, "MEAN_MOTION_DOT": 6.383e-05, "MEAN_MOTION_DDOT": 0}, "tle": {"line1": "1 36724U 99025EAW 25344.04370294  .00006383  00000+0  25842-2 0  9996", "line2": "2 36724  99.4684  15.5672 0103676 205.2556 186.4891 14.25243591574344"}}, "geometry": {"type": "Point", "coordinates": [160.08477941083845, -75.6391850704633]}}, {"type": "Feature", "properties": {"norad_id": 36729, "name": "FENGYUN 1C DEB", "group": "fengyun-1c-debris", "lat": -17.549360535853978, "lon": 147.82038713131976, "alt_km": 843.0696119188051, "timestamp": "2025-12-14T20:40:32.060248+00:00", "meta": {"OBJECT_NAME": "FENGYUN 1C DEB", "OBJECT_ID": "1999-025EBB", "EPOCH": "2025-12-13T04:34:30.152064", "MEAN_MOTION": 14.10317434, "ECCENTRICITY": 0.00453362, "INCLINATION": 98.7081, "RA_OF_ASC_NODE": 328.9806, "ARG_OF_PERICENTER": 254.8345, "MEAN_ANOMALY": 104.7809, "EPHEMERIS_TYPE": 0, "CLASSIFICATION_TYPE": "U", "NORAD_CAT_ID": 36729, "ELEMENT_SET_NO": 999, "REV_AT_EPOCH": 87258, "BSTAR": 0.00039273708, "MEAN_MOTION_DOT": 6.61e-06, "MEAN_MOTION_DDOT": 0}, "tle": {"line1": "1 36729U 99025EBB 25347.19062676  .00000661  00000+0  39274-3 0  9990", "line2": "2 36729  98.7081 328.9806 0045336 254.8345 104.7809 14.10317434872587"}}, "geometry": {"type": "Point", "coordinates": [147.82038713131976, -17.549360535853978]}}, {"type": "Feature", "properties": {"norad_id": 36734, "name": "FENGYUN 1C DEB", "group": "fengyun-1c-debris", "lat": 73.81751126384778, "lon": 2.487438931164957, "alt_km": 817.3340659999785, "timestamp": "2025-12-14T20:40:32.060258+00:00", "meta": {"OBJECT_NAME": "FENGYUN 1C DEB", "OBJECT_ID": "1999-025EBG", "EPOCH": "2025-12-13T14:00:04.416480", "MEAN_MOTION": 14.25866411, "ECCENTRICITY": 0.00362904, "INCLINATION": 99.0563, "RA_OF_ASC_NODE": 34.5076, "ARG_OF_PERICENTER": 216.8146, "MEAN_ANOMALY": 143.054, "EPHEMERIS_TYPE": 0, "CLASSIFICATION_TYPE": "U", "NORAD_CAT_ID": 36734, "ELEMENT_SET_NO": 999, "REV_AT_EPOCH": 82746, "BSTAR": 0.0020862953, "MEAN_MOTION_DOT": 4.956e-05, "MEAN_MOTION_DDOT": 0}, "tle": {"line1": "1 36734U 99025EBG 25347.58338445  .00004956  00000+0  20863-2 0  9993", "line2": "2 36734  99.0563  34.5076 0036290 216.8146 143.0540 14.25866411827462"}}, "geometry": {"type": "Point", "coordinates": [2.487438931164957, 73.81751126384778]}}, {"type": "Feature", "properties": {"norad_id": 36736, "name": "FENGYUN 1C DEB", "group": "fengyun-1c-debris", "lat": 6.598839247188329, "lon": -116.6419158650807, "alt_km": 774.69288699559, "timestamp": "2025-12-14T20:40:32.060268+00:00", "meta": {"OBJECT_NAME": "FENGYUN 1C DEB", "OBJECT_ID": "1999-025EBJ", "EPOCH": "2025-12-13T11:51:45.923328", "MEAN_MOTION": 14.25478828, "ECCENTRICITY": 0.00610834, "INCLINATION": 98.8058, "RA_OF_ASC_NODE": 60.9581, "ARG_OF_PERICENTER": 138.0279, "MEAN_ANOMALY": 222.5605, "EPHEMERIS_TYPE": 0, "CLASSIFICATION_TYPE": "U", "NORAD_CAT_ID": 36736, "ELEMENT_SET_NO": 999, "REV_AT_EPOCH": 88626, "BSTAR": 0.0027114749, "MEAN_MOTION_DOT": 6.492e-05, "MEAN_MOTION_DDOT": 0}, "tle": {"line1": "1 36736U 99025EBJ 25347.49428152  .00006492  00000+0  27115-2 0  9994", "line2": "2 36736  98.8058  60.9581 0061083 138.0279 222.5605 14.25478828886263"}}, "geometry": {"type": "Point", "coordinates": [-116.6419158650807, 6.598839247188329]}}, {"type": "Feature", "properties": {"norad_id": 36743, "name": "FENGYUN 1C DEB", "group": "fengyun-1c-debris", "lat": -49.69325816139374, "lon": -153.2328814687956, "alt_km": 826.2892519945735, "timestamp": "2025-12-14T20:40:32.060278+00:00", "meta": {"OBJECT_NAME": "FENGYUN 1C DEB", "OBJECT_ID": "1999-025EBR", "EPOCH": "2025-12-06T23:24:01.212192", "MEAN_MOTION": 14.29041368, "ECCENTRICITY": 0.00476846, "INCLINATION": 98.6555, "RA_OF_ASC_NODE": 29.2835, "ARG_OF_PERICENTER": 30.1026, "MEAN_ANOMALY": 330.2881, "EPHEMERIS_TYPE": 0, "CLASSIFICATION_TYPE": "U", "NORAD_CAT_ID": 36743, "ELEMENT_SET_NO": 999, "REV_AT_EPOCH": 60655, "BSTAR": 0.0020129322, "MEAN_MOTION_DOT": 5.118e-05, "MEAN_MOTION_DDOT": 0}, "tle": {"line1": "1 36743U 99025EBR 25340.97501403  .00005118  00000+0  20129-2 0  9991", "line2": "2 36743  98.6555  29.2835 0047684  30.1026 330.2881 14.29041368606558"}}, "geometry": {"type": "Point", "coordinates": [-153.2328814687956, -49.69325816139374]}}, {"type": "Feature", "properties": {"norad_id": 36986, "name": "FENGYUN 1C DEB", "group": "fengyun-1c-debris", "lat": 74.68264005539791, "lon": 18.891397014366373, "alt_km": 895.0031239181635, "timestamp": "2025-12-14T20:40:32.060287+00:00", "meta": {"OBJECT_NAME": "FENGYUN 1C DEB", "OBJECT_ID": "1999-025EBS", "EPOCH": "2025-12-13T15:26:45.535776", "MEAN_MOTION": 14.14596768, "ECCENTRICITY": 0.00874626, "INCLINATION": 99.1451, "RA_OF_ASC_NODE": 53.6683, "ARG_OF_PERICENTER": 239.1768, "MEAN_ANOMALY": 120.0776, "EPHEMERIS_TYPE": 0, "CLASSIFICATION_TYPE": "U", "NORAD_CAT_ID": 36986, "ELEMENT_SET_NO": 999, "REV_AT_EPOCH": 81757, "BSTAR": 0.0026122085, "MEAN_MOTION_DOT": 5.162e-05, "MEAN_MOTION_DDOT": 0}, "tle": {"line1": "1 36986U 99025EBS 25347.64358259  .00005162  00000+0  26122-2 0  9998", "line2": "2 36986  99.1451  53.6683 0087462 239.1768 120.0776 14.14596768817579"}}, "geometry": {"type": "Point", "coordinates": [18.891397014366373, 74.68264005539791]}}]}